[{"OBJECT_NAME":"HULIANWANG DIGUI-81","OBJECT_ID":"2025-187J","EPOCH":"2026-03-04T11:30:00.069408","MEAN_MOTION":13.29341304,"ECCENTRICITY":0.0001061,"INCLINATION":50.0055,"RA_OF_ASC_NODE":221.3641,"ARG_OF_PERICENTER":134.1161,"MEAN_ANOMALY":225.9799,"EPHEMERIS_TYPE":0,"CLASSIFICATION_TYPE":"U","NORAD_CAT_ID":65313,"ELEMENT_SET_NO":999,"REV_AT_EPOCH":2578,"BSTAR":5.1015e-5,"MEAN_MOTION_DOT":-1.0e-6,"MEAN_MOTION_DDOT":0},{"OBJECT_NAME":"HULIANWANG DIGUI-82","OBJECT_ID":"2025-220A","EPOCH":"2026-03-04T10:54:44.750304","MEAN_MOTION":13.24421795,"ECCENTRICITY":0.0002247,"INCLINATION":86.4897,"RA_OF_ASC_NODE":79.235,"ARG_OF_PERICENTER":101.6757,"MEAN_ANOMALY":258.4629,"EPHEMERIS_TYPE":0,"CLASSIFICATION_TYPE":"U","NORAD_CAT_ID":65817,"ELEMENT_SET_NO":999,"REV_AT_EPOCH":2105,"BSTAR":0.00010813,"MEAN_MOTION_DOT":6.1e-7,"MEAN_MOTION_DDOT":0},{"OBJECT_NAME":"HULIANWANG DIGUI-83","OBJECT_ID":"2025-220B","EPOCH":"2026-03-04T10:43:56.236224","MEAN_MOTION":13.24420991,"ECCENTRICITY":0.0002239,"INCLINATION":86.4919,"RA_OF_ASC_NODE":79.2676,"ARG_OF_PERICENTER":101.389,"MEAN_ANOMALY":258.7495,"EPHEMERIS_TYPE":0,"CLASSIFICATION_TYPE":"U","NORAD_CAT_ID":65818,"ELEMENT_SET_NO":999,"REV_AT_EPOCH":2105,"BSTAR":0.00013028,"MEAN_MOTION_DOT":7.1e-7,"MEAN_MOTION_DDOT":0},{"OBJECT_NAME":"HULIANWANG DIGUI-84","OBJECT_ID":"2025-220C","EPOCH":"2026-03-04T10:33:01.187712","MEAN_MOTION":13.24421398,"ECCENTRICITY":0.0002233,"INCLINATION":86.4856,"RA_OF_ASC_NODE":79.1617,"ARG_OF_PERICENTER":100.5692,"MEAN_ANOMALY":259.5694,"EPHEMERIS_TYPE":0,"CLASSIFICATION_TYPE":"U","NORAD_CAT_ID":65819,"ELEMENT_SET_NO":999,"REV_AT_EPOCH":2105,"BSTAR":0.00010644,"MEAN_MOTION_DOT":6.0e-7,"MEAN_MOTION_DDOT":0},{"OBJECT_NAME":"HULIANWANG DIGUI-85","OBJECT_ID":"2025-220D","EPOCH":"2026-03-04T10:22:04.490688","MEAN_MOTION":13.24421965,"ECCENTRICITY":0.0002227,"INCLINATION":86.4917,"RA_OF_ASC_NODE":79.2579,"ARG_OF_PERICENTER":101.7932,"MEAN_ANOMALY":258.3452,"EPHEMERIS_TYPE":0,"CLASSIFICATION_TYPE":"U","NORAD_CAT_ID":65820,"ELEMENT_SET_NO":999,"REV_AT_EPOCH":2105,"BSTAR":0.00011324,"MEAN_MOTION_DOT":6.3e-7,"MEAN_MOTION_DDOT":0},{"OBJECT_NAME":"HULIANWANG DIGUI-86","OBJECT_ID":"2025-220E","EPOCH":"2026-03-04T12:00:06.606144","MEAN_MOTION":13.24420776,"ECCENTRICITY":0.0002222,"INCLINATION":86.4896,"RA_OF_ASC_NODE":79.1937,"ARG_OF_PERICENTER":101.537,"MEAN_ANOMALY":258.6014,"EPHEMERIS_TYPE":0,"CLASSIFICATION_TYPE":"U","NORAD_CAT_ID":65821,"ELEMENT_SET_NO":999,"REV_AT_EPOCH":2106,"BSTAR":4.2517e-5,"MEAN_MOTION_DOT":3.3e-7,"MEAN_MOTION_DDOT":0},{"OBJECT_NAME":"HULIANWANG DIGUI-87","OBJECT_ID":"2025-231A","EPOCH":"2026-03-04T10:34:08.730912","MEAN_MOTION":13.29330233,"ECCENTRICITY":6.08e-5,"INCLINATION":49.999,"RA_OF_ASC_NODE":191.5512,"ARG_OF_PERICENTER":179.5645,"MEAN_ANOMALY":180.5228,"EPHEMERIS_TYPE":0,"CLASSIFICATION_TYPE":"U","NORAD_CAT_ID":65995,"ELEMENT_SET_NO":999,"REV_AT_EPOCH":1895,"BSTAR":4.4335e-5,"MEAN_MOTION_DOT":-1.03e-6,"MEAN_MOTION_DDOT":0},{"OBJECT_NAME":"HULIANWANG DIGUI-88","OBJECT_ID":"2025-231B","EPOCH":"2026-03-04T10:46:12.355104","MEAN_MOTION":13.29329314,"ECCENTRICITY":6.29e-5,"INCLINATION":49.9976,"RA_OF_ASC_NODE":191.5811,"ARG_OF_PERICENTER":185.6214,"MEAN_ANOMALY":174.4651,"EPHEMERIS_TYPE":0,"CLASSIFICATION_TYPE":"U","NORAD_CAT_ID":65996,"ELEMENT_SET_NO":999,"REV_AT_EPOCH":1895,"BSTAR":5.9355e-5,"MEAN_MOTION_DOT":-9.6e-7,"MEAN_MOTION_DDOT":0},{"OBJECT_NAME":"HULIANWANG DIGUI-89","OBJECT_ID":"2025-231C","EPOCH":"2026-03-04T10:22:06.799296","MEAN_MOTION":13.29329871,"ECCENTRICITY":6.41e-5,"INCLINATION":49.9954,"RA_OF_ASC_NODE":191.4685,"ARG_OF_PERICENTER":186.4412,"MEAN_ANOMALY":173.6452,"EPHEMERIS_TYPE":0,"CLASSIFICATION_TYPE":"U","NORAD_CAT_ID":65997,"ELEMENT_SET_NO":999,"REV_AT_EPOCH":1895,"BSTAR":4.4225e-5,"MEAN_MOTION_DOT":-1.04e-6,"MEAN_MOTION_DDOT":0},{"OBJECT_NAME":"HULIANWANG DIGUI-90","OBJECT_ID":"2025-231D","EPOCH":"2026-03-04T08:21:49.539456","MEAN_MOTION":13.29330031,"ECCENTRICITY":6.09e-5,"INCLINATION":49.9982,"RA_OF_ASC_NODE":191.7278,"ARG_OF_PERICENTER":186.2879,"MEAN_ANOMALY":173.7985,"EPHEMERIS_TYPE":0,"CLASSIFICATION_TYPE":"U","NORAD_CAT_ID":65998,"ELEMENT_SET_NO":999,"REV_AT_EPOCH":1894,"BSTAR":4.3386e-5,"MEAN_MOTION_DOT":-1.04e-6,"MEAN_MOTION_DDOT":0},{"OBJECT_NAME":"HULIANWANG DIGUI-91","OBJECT_ID":"2025-231E","EPOCH":"2026-03-04T09:58:03.439776","MEAN_MOTION":13.29329965,"ECCENTRICITY":6.29e-5,"INCLINATION":50.0002,"RA_OF_ASC_NODE":191.4387,"ARG_OF_PERICENTER":184.3597,"MEAN_ANOMALY":175.727,"EPHEMERIS_TYPE":0,"CLASSIFICATION_TYPE":"U","NORAD_CAT_ID":65999,"ELEMENT_SET_NO":999,"REV_AT_EPOCH":1895,"BSTAR":5.2449e-5,"MEAN_MOTION_DOT":-1.0e-6,"MEAN_MOTION_DDOT":0},{"OBJECT_NAME":"HULIANWANG DIGUI-92","OBJECT_ID":"2025-231F","EPOCH":"2026-03-04T11:34:16.330080","MEAN_MOTION":13.29330468,"ECCENTRICITY":6.26e-5,"INCLINATION":50.0043,"RA_OF_ASC_NODE":191.1705,"ARG_OF_PERICENTER":185.5172,"MEAN_ANOMALY":174.5693,"EPHEMERIS_TYPE":0,"CLASSIFICATION_TYPE":"U","NORAD_CAT_ID":66000,"ELEMENT_SET_NO":999,"REV_AT_EPOCH":1896,"BSTAR":4.9485e-5,"MEAN_MOTION_DOT":-1.01e-6,"MEAN_MOTION_DDOT":0},{"OBJECT_NAME":"HULIANWANG DIGUI-93","OBJECT_ID":"2025-231G","EPOCH":"2026-03-04T11:10:15.783744","MEAN_MOTION":13.2932958,"ECCENTRICITY":6.08e-5,"INCLINATION":50.001,"RA_OF_ASC_NODE":191.0509,"ARG_OF_PERICENTER":185.05,"MEAN_ANOMALY":175.0366,"EPHEMERIS_TYPE":0,"CLASSIFICATION_TYPE":"U","NORAD_CAT_ID":66001,"ELEMENT_SET_NO":999,"REV_AT_EPOCH":1896,"BSTAR":4.6441e-5,"MEAN_MOTION_DOT":-1.02e-6,"MEAN_MOTION_DDOT":0},{"OBJECT_NAME":"HULIANWANG DIGUI-94","OBJECT_ID":"2025-231H","EPOCH":"2026-03-04T11:22:14.773440","MEAN_MOTION":13.29330739,"ECCENTRICITY":6.31e-5,"INCLINATION":50.0049,"RA_OF_ASC_NODE":191.1386,"ARG_OF_PERICENTER":186.495,"MEAN_ANOMALY":173.5914,"EPHEMERIS_TYPE":0,"CLASSIFICATION_TYPE":"U","NORAD_CAT_ID":66002,"ELEMENT_SET_NO":999,"REV_AT_EPOCH":1896,"BSTAR":5.6753e-5,"MEAN_MOTION_DOT":-9.8e-7,"MEAN_MOTION_DDOT":0},{"OBJECT_NAME":"HULIANWANG DIGUI-95","OBJECT_ID":"2025-231J","EPOCH":"2026-03-04T10:58:26.273856","MEAN_MOTION":13.2932573,"ECCENTRICITY":6.29e-5,"INCLINATION":50.0022,"RA_OF_ASC_NODE":191.0223,"ARG_OF_PERICENTER":182.9925,"MEAN_ANOMALY":177.0943,"EPHEMERIS_TYPE":0,"CLASSIFICATION_TYPE":"U","NORAD_CAT_ID":66003,"ELEMENT_SET_NO":999,"REV_AT_EPOCH":1896,"BSTAR":5.7808e-5,"MEAN_MOTION_DOT":-9.7e-7,"MEAN_MOTION_DDOT":0},{"OBJECT_NAME":"HULIANWANG DIGUI-96","OBJECT_ID":"2025-258A","EPOCH":"2026-03-04T00:42:42.624000","MEAN_MOTION":13.2933133,"ECCENTRICITY":3.81e-5,"INCLINATION":50.0052,"RA_OF_ASC_NODE":312.7898,"ARG_OF_PERICENTER":92.486,"MEAN_ANOMALY":267.6056,"EPHEMERIS_TYPE":0,"CLASSIFICATION_TYPE":"U","NORAD_CAT_ID":66412,"ELEMENT_SET_NO":999,"REV_AT_EPOCH":1574,"BSTAR":0.00016763,"MEAN_MOTION_DOT":-4.6e-7,"MEAN_MOTION_DDOT":0}]
