HULIANWANG DIGUI-81     
1 65313U 25187J   26063.47916747 -.00000100  00000+0  51015-4 0  9990
2 65313  50.0055 221.3641 0001061 134.1161 225.9799 13.29341304 25784
HULIANWANG DIGUI-82     
1 65817U 25220A   26063.45468461  .00000061  00000+0  10813-3 0  9995
2 65817  86.4897  79.2350 0002247 101.6757 258.4629 13.24421795 21051
HULIANWANG DIGUI-83     
1 65818U 25220B   26063.44717866  .00000071  00000+0  13028-3 0  9993
2 65818  86.4919  79.2676 0002239 101.3890 258.7495 13.24420991 21055
HULIANWANG DIGUI-84     
1 65819U 25220C   26063.43959708  .00000060  00000+0  10644-3 0  9995
2 65819  86.4856  79.1617 0002233 100.5692 259.5694 13.24421398 21057
HULIANWANG DIGUI-85     
1 65820U 25220D   26063.43199642  .00000063  00000+0  11324-3 0  9999
2 65820  86.4917  79.2579 0002227 101.7932 258.3452 13.24421965 21057
HULIANWANG DIGUI-86     
1 65821U 25220E   26063.50007646  .00000033  00000+0  42517-4 0  9996
2 65821  86.4896  79.1937 0002222 101.5370 258.6014 13.24420776 21067
HULIANWANG DIGUI-87     
1 65995U 25231A   26063.44037883 -.00000103  00000+0  44335-4 0  9998
2 65995  49.9990 191.5512 0000608 179.5645 180.5228 13.29330233 18959
HULIANWANG DIGUI-88     
1 65996U 25231B   26063.44875411 -.00000096  00000+0  59355-4 0  9995
2 65996  49.9976 191.5811 0000629 185.6214 174.4651 13.29329314 18959
HULIANWANG DIGUI-89     
1 65997U 25231C   26063.43202314 -.00000104  00000+0  44225-4 0  9991
2 65997  49.9954 191.4685 0000641 186.4412 173.6452 13.29329871 18955
HULIANWANG DIGUI-90     
1 65998U 25231D   26063.34849004 -.00000104  00000+0  43386-4 0  9992
2 65998  49.9982 191.7278 0000609 186.2879 173.7985 13.29330031 18948
HULIANWANG DIGUI-91     
1 65999U 25231E   26063.41531759 -.00000100  00000+0  52449-4 0  9992
2 65999  50.0002 191.4387 0000629 184.3597 175.7270 13.29329965 18955
HULIANWANG DIGUI-92     
1 66000U 25231F   26063.48213345 -.00000101  00000+0  49485-4 0  9998
2 66000  50.0043 191.1705 0000626 185.5172 174.5693 13.29330468 18961
HULIANWANG DIGUI-93     
1 66001U 25231G   26063.46546046 -.00000102  00000+0  46441-4 0  9994
2 66001  50.0010 191.0509 0000608 185.0500 175.0366 13.29329580 18963
HULIANWANG DIGUI-94     
1 66002U 25231H   26063.47378210 -.00000098  00000+0  56753-4 0  9993
2 66002  50.0049 191.1386 0000631 186.4950 173.5914 13.29330739 18960
HULIANWANG DIGUI-95     
1 66003U 25231J   26063.45724854 -.00000097  00000+0  57808-4 0  9992
2 66003  50.0022 191.0223 0000629 182.9925 177.0943 13.29325730 18967
HULIANWANG DIGUI-96     
1 66412U 25258A   26063.02966000 -.00000046  00000+0  16763-3 0  9997
2 66412  50.0052 312.7898 0000381  92.4860 267.6056 13.29331330 15749
